NOAA 15                 
1 25338U 98030A   24213.56230705  .00000392  00000+0  17997-3 0  9990
2 25338  98.5671 239.7597 0010135 188.3598 171.7415 14.26643358363766
NOAA 18                 
1 28654U 05018A   24213.52782506  .00000346  00000+0  20842-3 0  9997
2 28654  98.8732 290.1233 0013178 299.3815  60.6041 14.13266885989435
NOAA 19                 
1 33591U 09005A   24213.55639203  .00000339  00000+0  20596-3 0  9999
2 33591  99.0445 269.8196 0014219 163.3845 196.7795 14.13061104797639
METOP-B                 
1 38771U 12049A   24213.58938002  .00000245  00000+0  13182-3 0  9997
2 38771  98.6253 269.8088 0001016  83.3497 276.7796 14.21459113615865
SARAL                   
1 39086U 13009A   24213.57526636  .00000263  00000+0  11339-3 0  9991
2 39086  98.5520  38.0762 0002653 130.3262 229.8154 14.32454691597434
METOP-C                 
1 43689U 18087A   24213.55669144  .00000249  00000+0  13401-3 0  9992
2 43689  98.7211 272.3090 0001304   1.8587 358.2595 14.21476976297428
ANGELS                  
1 44876U 19092D   24213.49709432  .00009421  00000+0  34836-3 0  9992
2 44876  97.4744  42.1401 0010283 156.0814 204.0905 15.27876725256123
OTB-3-GAZELLE           
1 54023U 22127A   24213.52498957  .00000406  00000+0  13627-3 0  9990
2 54023  98.3452 206.8506 0014653  97.0274 263.2583 14.42150554 95512
EOS-6 (OCEANSAT-3)      
1 54361U 22158A   24213.54937943  .00000704  00000+0  20550-3 0  9998
2 54361  98.3539 309.9841 0001809  83.4559 276.6839 14.47012947 88684
